OBJECT_NAME,OBJECT_ID,EPOCH,MEAN_MOTION,ECCENTRICITY,INCLINATION,RA_OF_ASC_NODE,ARG_OF_PERICENTER,MEAN_ANOMALY,EPHEMERIS_TYPE,CLASSIFICATION_TYPE,NORAD_CAT_ID,ELEMENT_SET_NO,REV_AT_EPOCH,BSTAR,MEAN_MOTION_DOT,MEAN_MOTION_DDOT
LEMUR-1,2014-033AL,2026-07-08T22:03:32.487264,14.85324329,.0048317,97.7901,339.2449,8.5943,351.6089,0,U,40044,999,64869,.14819226E-3,.1245E-4,0
LEMUR-2-GREENBERG,2017-042N,2026-07-08T23:20:53.494368,15.32018187,.00071462,97.3832,10.5085,285.9327,74.1127,0,U,42837,999,49172,.38353707E-3,.11793E-3,0
LEMUR-2-ANDIS,2017-042P,2026-07-08T22:49:12.150048,15.35747627,.00071057,97.3685,10.7481,284.4305,75.6150,0,U,42838,999,49179,.41045421E-3,.14212E-3,0
LEMUR-2-MONSON,2017-042Q,2026-07-08T23:07:45.952320,15.28644155,.00051337,97.4094,10.4380,274.0465,86.0188,0,U,42839,999,49149,.34877031E-3,.9647E-4,0
LEMUR-2-FURIAUS,2017-042R,2026-07-08T11:00:35.222400,15.30975722,.0006516,97.3781,7.9032,356.1929,3.9261,0,U,42840,999,49146,.37716981E-3,.11223E-3,0
LEMUR-2-PETERG,2017-042S,2026-07-08T22:45:16.101792,15.34864591,.00029308,97.3999,15.0281,250.3592,109.7335,0,U,42841,999,49177,.45426881E-3,.15292E-3,0
LEMUR-2-DEMBITZ,2017-042T,2026-07-08T17:45:22.592448,15.30969559,.00051261,97.3834,11.2222,303.4427,56.6324,0,U,42842,999,49164,.39206163E-3,.11664E-3,0
LEMUR-2-ZACHARY,2017-042W,2026-07-08T06:49:32.301696,15.52227477,.00023152,97.3592,21.3972,284.3315,75.7681,0,U,42845,999,49247,.5596613E-3,.33943E-3,0
LEMUR-2-AMANDA-SVANTE,2021-034B,2026-07-08T17:45:33.921216,15.35673063,.00042729,97.5750,268.6130,158.5579,201.5844,0,U,48269,999,28436,.70941292E-3,.24581E-3,0
LEMUR-2-SPECIAL-K,2021-034F,2026-07-08T18:48:22.999392,15.72370976,.00058642,97.5632,278.3223,219.6394,140.4441,0,U,48273,999,28507,.14929865E-2,.202245E-2,0
LEMUR-2-EMBRIONOVIS,2023-084AQ,2026-07-08T22:26:05.364384,15.38115648,.00078283,97.6310,334.9806,230.6435,129.4116,0,U,56970,999,17102,.26448343E-3,.9847E-4,0
LEMUR-2-DEVERILL-M-T,2023-100F,2026-07-07T16:45:47.686176,15.40821036,.00047974,99.4460,233.3957,329.3522,30.7437,0,U,57391,999,16440,.3956978E-3,.16121E-3,0
LEMUR-2-BASS,2023-174D,2026-07-08T22:17:42.468864,15.43844277,.00079703,97.3841,274.9551,96.9389,263.2766,0,U,58259,999,14871,.28203304E-3,.12717E-3,0
LEMUR-2-JK0903EM1407,2023-174CJ,2026-07-08T22:23:40.104384,15.52830500,.00041933,97.3915,281.0332,53.9307,306.2334,0,U,58336,999,14910,.32614204E-3,.20142E-3,0
LEMUR-2-MJR092620,2023-174CN,2026-07-08T18:53:35.851200,15.45696002,.00059364,97.3969,280.2255,51.2586,308.9193,0,U,58340,999,14898,.3135493E-3,.15065E-3,0
LEMUR-2-NIMBUS2000,2024-022A,2026-07-08T15:29:08.176992,15.40918823,.00094074,97.4096,39.9264,49.8701,310.3369,0,U,58899,999,13557,.39954574E-3,.16384E-3,0
LEMUR-2-VALHALLA,2024-022B,2026-07-08T12:25:21.736416,15.40344373,.00099081,97.4095,39.7731,46.0433,314.1629,0,U,58900,999,13555,.30170396E-3,.12113E-3,0
LEMUR-2-CAEL,2024-022E,2026-07-08T07:32:42.895968,15.41690753,.00079027,97.4078,40.5408,33.0363,327.1376,0,U,58903,999,13559,.28530534E-3,.11966E-3,0
LEMUR-2-JOHNNYTRUONG,2024-043BA,2026-07-08T16:26:29.091552,15.62171037,.00043294,97.5388,342.7481,112.0392,248.1325,0,U,59146,999,13139,.37828482E-3,.33181E-3,0
LEMUR-2-TOMATOKECHUP,2024-149D,2026-07-08T19:08:25.173312,15.36491942,.00029972,97.3793,271.9051,133.9073,226.2419,0,U,60471,999,10548,.21141057E-3,.7447E-4,0
LEMUR-2-STELLA,2024-149BT,2026-07-08T17:19:33.095712,15.12280986,.00010443,97.6728,272.2767,111.1578,248.9764,0,U,60533,999,10375,.47339544E-3,.8128E-4,0
LEMUR-2-MARHISYAM,2024-149BW,2026-07-08T18:38:08.747232,15.11695085,.00027861,97.6875,272.8024,79.1951,280.9593,0,U,60536,999,10374,.47514875E-3,.8027E-4,0
LEMUR-2-AHMED-ASRAR,2024-149DN,2026-07-08T18:56:49.175520,15.13212854,.00006552,97.6998,274.9929,245.3052,114.8111,0,U,60576,999,10383,.4695679E-3,.8275E-4,0
LEMUR-2-LLOYD,2024-149DP,2026-07-08T18:51:33.236640,15.09668416,.00048126,97.6733,270.9309,86.7270,273.4510,0,U,60577,999,10365,.46856087E-3,.7484E-4,0
LEMUR-2-SQUIRRELCOMM,2024-149DQ,2026-07-08T00:49:41.985408,15.07397331,.00047468,97.6707,269.8822,354.4134,5.7039,0,U,60578,999,10354,.24740327E-3,.3681E-4,0
LEMUR-2-SIERRINI,2024-149DR,2026-07-08T19:18:05.656896,15.11421398,.00065063,97.6834,272.4977,107.2256,252.9686,0,U,60579,999,10372,.39680337E-3,.6643E-4,0
LEMUR-2-WILSON,2025-009CP,2026-07-08T10:37:57.505152,14.95263092,.00025129,97.7023,267.5350,1.2947,358.8280,0,U,62694,999,8053,.16290216E-3,.1736E-4,0
LEMUR-2-STAR-FOX,2025-009CR,2026-07-08T19:14:05.048448,15.02792322,.0003127,97.6924,271.2563,64.7276,295.4272,0,U,62696,999,8080,.2840896E-3,.3741E-4,0
LEMUR-2-ARIANNA,2025-009CU,2026-07-08T19:11:52.744992,15.02792285,.00034484,97.6861,271.0121,70.2797,289.8800,0,U,62699,999,8080,.30009095E-3,.3955E-4,0
LEMUR-2-ALISIA,2025-009DB,2026-07-08T18:34:04.688832,15.03110180,.00035501,97.6958,271.7979,149.8372,210.3058,0,U,62706,999,10340,.44959389E-3,.6008E-4,0
